[{"OBJECT_NAME":"OCO 2","OBJECT_ID":"2014-035A","EPOCH":"2026-03-05T19:22:49.423872","MEAN_MOTION":14.57089268,"ECCENTRICITY":0.0001179,"INCLINATION":98.2195,"RA_OF_ASC_NODE":7.7107,"ARG_OF_PERICENTER":91.7776,"MEAN_ANOMALY":268.3558,"EPHEMERIS_TYPE":0,"CLASSIFICATION_TYPE":"U","NORAD_CAT_ID":40059,"ELEMENT_SET_NO":999,"REV_AT_EPOCH":62099,"BSTAR":0.00019655,"MEAN_MOTION_DOT":8.4e-6,"MEAN_MOTION_DDOT":0},{"OBJECT_NAME":"BRITE-PL2 (HEWELIUSZ)","OBJECT_ID":"2014-049B","EPOCH":"2026-03-05T17:19:40.347264","MEAN_MOTION":14.94158096,"ECCENTRICITY":0.0015602,"INCLINATION":97.8984,"RA_OF_ASC_NODE":176.0294,"ARG_OF_PERICENTER":93.5209,"MEAN_ANOMALY":266.7796,"EPHEMERIS_TYPE":0,"CLASSIFICATION_TYPE":"U","NORAD_CAT_ID":40119,"ELEMENT_SET_NO":999,"REV_AT_EPOCH":62599,"BSTAR":0.00038877,"MEAN_MOTION_DOT":4.112e-5,"MEAN_MOTION_DDOT":0},{"OBJECT_NAME":"MMS 1","OBJECT_ID":"2015-011A","EPOCH":"2026-03-05T18:00:00.998784","MEAN_MOTION":0.28334504,"ECCENTRICITY":0.841549,"INCLINATION":70.7606,"RA_OF_ASC_NODE":350.2105,"ARG_OF_PERICENTER":165.2379,"MEAN_ANOMALY":187.9716,"EPHEMERIS_TYPE":0,"CLASSIFICATION_TYPE":"U","NORAD_CAT_ID":40482,"ELEMENT_SET_NO":999,"REV_AT_EPOCH":133,"BSTAR":0,"MEAN_MOTION_DOT":-1.901e-5,"MEAN_MOTION_DDOT":0},{"OBJECT_NAME":"MMS 2","OBJECT_ID":"2015-011B","EPOCH":"2026-03-05T18:00:00.998784","MEAN_MOTION":0.28334931,"ECCENTRICITY":0.8416419,"INCLINATION":70.7631,"RA_OF_ASC_NODE":350.2122,"ARG_OF_PERICENTER":165.2445,"MEAN_ANOMALY":187.9552,"EPHEMERIS_TYPE":0,"CLASSIFICATION_TYPE":"U","NORAD_CAT_ID":40483,"ELEMENT_SET_NO":999,"REV_AT_EPOCH":133,"BSTAR":0,"MEAN_MOTION_DOT":-1.901e-5,"MEAN_MOTION_DDOT":0},{"OBJECT_NAME":"MMS 3","OBJECT_ID":"2015-011C","EPOCH":"2026-03-05T18:00:00.998784","MEAN_MOTION":0.283349,"ECCENTRICITY":0.8415704,"INCLINATION":70.7654,"RA_OF_ASC_NODE":350.2169,"ARG_OF_PERICENTER":165.2387,"MEAN_ANOMALY":187.9638,"EPHEMERIS_TYPE":0,"CLASSIFICATION_TYPE":"U","NORAD_CAT_ID":40484,"ELEMENT_SET_NO":999,"REV_AT_EPOCH":133,"BSTAR":0,"MEAN_MOTION_DOT":-1.901e-5,"MEAN_MOTION_DDOT":0},{"OBJECT_NAME":"MMS 4","OBJECT_ID":"2015-011D","EPOCH":"2026-03-05T18:00:00.998784","MEAN_MOTION":0.28334897,"ECCENTRICITY":0.8415205,"INCLINATION":70.7635,"RA_OF_ASC_NODE":350.212,"ARG_OF_PERICENTER":165.246,"MEAN_ANOMALY":187.9494,"EPHEMERIS_TYPE":0,"CLASSIFICATION_TYPE":"U","NORAD_CAT_ID":40485,"ELEMENT_SET_NO":999,"REV_AT_EPOCH":133,"BSTAR":0,"MEAN_MOTION_DOT":-1.901e-5,"MEAN_MOTION_DDOT":0},{"OBJECT_NAME":"ASTROSAT","OBJECT_ID":"2015-052A","EPOCH":"2026-03-05T18:03:34.748928","MEAN_MOTION":14.82286098,"ECCENTRICITY":0.0008144,"INCLINATION":5.9956,"RA_OF_ASC_NODE":179.7697,"ARG_OF_PERICENTER":353.6021,"MEAN_ANOMALY":6.4003,"EPHEMERIS_TYPE":0,"CLASSIFICATION_TYPE":"U","NORAD_CAT_ID":40930,"ELEMENT_SET_NO":999,"REV_AT_EPOCH":56445,"BSTAR":0.00023495,"MEAN_MOTION_DOT":2.594e-5,"MEAN_MOTION_DDOT":0},{"OBJECT_NAME":"DAMPE","OBJECT_ID":"2015-078A","EPOCH":"2026-03-05T17:55:23.437056","MEAN_MOTION":15.30480122,"ECCENTRICITY":0.0013884,"INCLINATION":97.4578,"RA_OF_ASC_NODE":69.717,"ARG_OF_PERICENTER":83.5774,"MEAN_ANOMALY":276.7047,"EPHEMERIS_TYPE":0,"CLASSIFICATION_TYPE":"U","NORAD_CAT_ID":41173,"ELEMENT_SET_NO":999,"REV_AT_EPOCH":56872,"BSTAR":5.0027e-5,"MEAN_MOTION_DOT":1.4e-5,"MEAN_MOTION_DDOT":0},{"OBJECT_NAME":"PISAT","OBJECT_ID":"2016-059B","EPOCH":"2026-03-05T16:04:11.157312","MEAN_MOTION":14.6876231,"ECCENTRICITY":0.0029219,"INCLINATION":97.8189,"RA_OF_ASC_NODE":69.5857,"ARG_OF_PERICENTER":173.4346,"MEAN_ANOMALY":186.7249,"EPHEMERIS_TYPE":0,"CLASSIFICATION_TYPE":"U","NORAD_CAT_ID":41784,"ELEMENT_SET_NO":999,"REV_AT_EPOCH":50454,"BSTAR":0.00027801,"MEAN_MOTION_DOT":1.584e-5,"MEAN_MOTION_DDOT":0},{"OBJECT_NAME":"HXMT (HUIYAN)","OBJECT_ID":"2017-034A","EPOCH":"2026-03-05T18:17:49.577568","MEAN_MOTION":15.17398791,"ECCENTRICITY":0.0032536,"INCLINATION":43.0152,"RA_OF_ASC_NODE":38.5055,"ARG_OF_PERICENTER":211.9772,"MEAN_ANOMALY":147.9102,"EPHEMERIS_TYPE":0,"CLASSIFICATION_TYPE":"U","NORAD_CAT_ID":42758,"ELEMENT_SET_NO":999,"REV_AT_EPOCH":48194,"BSTAR":0.00036409,"MEAN_MOTION_DOT":7.275e-5,"MEAN_MOTION_DDOT":0},{"OBJECT_NAME":"FLYING LAPTOP","OBJECT_ID":"2017-042G","EPOCH":"2026-03-05T18:38:41.454816","MEAN_MOTION":15.00486943,"ECCENTRICITY":0.0018793,"INCLINATION":97.4261,"RA_OF_ASC_NODE":224.6256,"ARG_OF_PERICENTER":108.1757,"MEAN_ANOMALY":252.1516,"EPHEMERIS_TYPE":0,"CLASSIFICATION_TYPE":"U","NORAD_CAT_ID":42831,"ELEMENT_SET_NO":999,"REV_AT_EPOCH":47094,"BSTAR":0.0003573,"MEAN_MOTION_DOT":4.46e-5,"MEAN_MOTION_DDOT":0},{"OBJECT_NAME":"ZHANGHENG 1-01 (CSES-1)","OBJECT_ID":"2018-015C","EPOCH":"2026-03-05T18:34:05.893248","MEAN_MOTION":15.20930311,"ECCENTRICITY":0.0014775,"INCLINATION":97.6749,"RA_OF_ASC_NODE":228.4323,"ARG_OF_PERICENTER":259.0307,"MEAN_ANOMALY":100.9265,"EPHEMERIS_TYPE":0,"CLASSIFICATION_TYPE":"U","NORAD_CAT_ID":43194,"ELEMENT_SET_NO":999,"REV_AT_EPOCH":44892,"BSTAR":0.00054439,"MEAN_MOTION_DOT":0.00012018,"MEAN_MOTION_DDOT":0},{"OBJECT_NAME":"SALSAT","OBJECT_ID":"2020-068K","EPOCH":"2026-03-05T13:08:47.110272","MEAN_MOTION":15.28084035,"ECCENTRICITY":0.0008579,"INCLINATION":97.8852,"RA_OF_ASC_NODE":61.4374,"ARG_OF_PERICENTER":314.2144,"MEAN_ANOMALY":45.8389,"EPHEMERIS_TYPE":0,"CLASSIFICATION_TYPE":"U","NORAD_CAT_ID":46495,"ELEMENT_SET_NO":999,"REV_AT_EPOCH":29952,"BSTAR":0.00043846,"MEAN_MOTION_DOT":0.00011945,"MEAN_MOTION_DDOT":0},{"OBJECT_NAME":"IXPE","OBJECT_ID":"2021-121A","EPOCH":"2026-03-05T18:00:00.998784","MEAN_MOTION":15.09152432,"ECCENTRICITY":0.0007703,"INCLINATION":0.2312,"RA_OF_ASC_NODE":19.2893,"ARG_OF_PERICENTER":314.156,"MEAN_ANOMALY":9.2078,"EPHEMERIS_TYPE":0,"CLASSIFICATION_TYPE":"U","NORAD_CAT_ID":49954,"ELEMENT_SET_NO":999,"REV_AT_EPOCH":580,"BSTAR":0.00086732,"MEAN_MOTION_DOT":0.00015132,"MEAN_MOTION_DDOT":0}]
