OCO 2                   
1 40059U 14035A   26064.80751648  .00000840  00000+0  19655-3 0  9998
2 40059  98.2195   7.7107 0001179  91.7776 268.3558 14.57089268620994
BRITE-PL2 (HEWELIUSZ)   
1 40119U 14049B   26064.72199476  .00004112  00000+0  38877-3 0  9999
2 40119  97.8984 176.0294 0015602  93.5209 266.7796 14.94158096625994
MMS 1                   
1 40482U 15011A   26064.75001156 -.00001901  00000+0  00000+0 0  9999
2 40482  70.7606 350.2105 8415490 165.2379 187.9716  0.28334504  1331
MMS 2                   
1 40483U 15011B   26064.75001156 -.00001901  00000+0  00000+0 0  9990
2 40483  70.7631 350.2122 8416419 165.2445 187.9552  0.28334931  1337
MMS 3                   
1 40484U 15011C   26064.75001156 -.00001901  00000+0  00000+0 0  9991
2 40484  70.7654 350.2169 8415704 165.2387 187.9638  0.28334900  1336
MMS 4                   
1 40485U 15011D   26064.75001156 -.00001901  00000+0  00000+0 0  9992
2 40485  70.7635 350.2120 8415205 165.2460 187.9494  0.28334897  1336
ASTROSAT                
1 40930U 15052A   26064.75248552  .00002594  00000+0  23495-3 0  9990
2 40930   5.9956 179.7697 0008144 353.6021   6.4003 14.82286098564450
DAMPE                   
1 41173U 15078A   26064.74679904  .00001400  00000+0  50027-4 0  9993
2 41173  97.4578  69.7170 0013884  83.5774 276.7047 15.30480122568723
PISAT                   
1 41784U 16059B   26064.66957358  .00001584  00000+0  27801-3 0  9990
2 41784  97.8189  69.5857 0029219 173.4346 186.7249 14.68762310504542
HXMT (HUIYAN)           
1 42758U 17034A   26064.76237937  .00007275  00000+0  36409-3 0  9998
2 42758  43.0152  38.5055 0032536 211.9772 147.9102 15.17398791481948
FLYING LAPTOP           
1 42831U 17042G   26064.77686869  .00004460  00000+0  35730-3 0  9991
2 42831  97.4261 224.6256 0018793 108.1757 252.1516 15.00486943470949
ZHANGHENG 1-01 (CSES-1) 
1 43194U 18015C   26064.77367932  .00012018  00000+0  54439-3 0  9997
2 43194  97.6749 228.4323 0014775 259.0307 100.9265 15.20930311448924
SALSAT                  
1 46495U 20068K   26064.54776748  .00011945  00000+0  43846-3 0  9997
2 46495  97.8852  61.4374 0008579 314.2144  45.8389 15.28084035299522
IXPE                    
1 49954U 21121A   26064.75001156  .00015132  00000+0  86732-3 0  9991
2 49954   0.2312  19.2893 0007703 314.1560   9.2078 15.09152432  5801
